[{"OBJECT_NAME":"ONEWEB-0263","OBJECT_ID":"2021-060Q","EPOCH":"2026-03-09T23:18:19.802592","MEAN_MOTION":13.16593554,"ECCENTRICITY":0.00018666,"INCLINATION":87.9004,"RA_OF_ASC_NODE":248.5148,"ARG_OF_PERICENTER":105.7659,"MEAN_ANOMALY":254.3678,"EPHEMERIS_TYPE":0,"CLASSIFICATION_TYPE":"U","NORAD_CAT_ID":48981,"ELEMENT_SET_NO":999,"REV_AT_EPOCH":22653,"BSTAR":3.8059137e-5,"MEAN_MOTION_DOT":2.7e-7,"MEAN_MOTION_DDOT":0},{"OBJECT_NAME":"THORAD AGENA D DEB","OBJECT_ID":"1970-025MQ","EPOCH":"2026-03-09T15:37:54.017760","MEAN_MOTION":12.93225109,"ECCENTRICITY":0.012376,"INCLINATION":101.6496,"RA_OF_ASC_NODE":316.6245,"ARG_OF_PERICENTER":103.1879,"MEAN_ANOMALY":314.8174,"EPHEMERIS_TYPE":0,"CLASSIFICATION_TYPE":"U","NORAD_CAT_ID":5967,"ELEMENT_SET_NO":999,"REV_AT_EPOCH":62558,"BSTAR":0.000964,"MEAN_MOTION_DOT":2.24e-6,"MEAN_MOTION_DDOT":0}]
